{
  "type": "FeatureCollection",
  "features": [
    {
      "type": "Feature",
      "properties": {
        "name": "Indian Exclusive Economic Zone (EEZ)",
        "authority": "National Hydrographic Office / UNCLOS",
        "limit_nm": 200,
        "coverage": "Arabian Sea, Bay of Bengal, Lakshadweep, Andaman & Nicobar"
      },
      "geometry": {
        "type": "Polygon",
        "coordinates": [
          [
            [68.0, 24.0],
            [65.0, 22.0],
            [64.5, 17.0],
            [66.0, 10.0],
            [69.0, 5.0],
            [71.5, 3.5],
            [75.0, 3.5],
            [77.5, 4.5],
            [80.0, 5.0],
            [83.0, 8.0],
            [87.0, 12.0],
            [90.0, 16.0],
            [92.0, 19.0],
            [90.0, 22.0],
            [88.5, 22.0],
            [85.0, 26.0],
            [75.0, 28.0],
            [68.0, 24.0]
          ]
        ]
      }
    }
  ]
}